OBJECT_NAME,OBJECT_ID,EPOCH,MEAN_MOTION,ECCENTRICITY,INCLINATION,RA_OF_ASC_NODE,ARG_OF_PERICENTER,MEAN_ANOMALY,EPHEMERIS_TYPE,CLASSIFICATION_TYPE,NORAD_CAT_ID,ELEMENT_SET_NO,REV_AT_EPOCH,BSTAR,MEAN_MOTION_DOT,MEAN_MOTION_DDOT
STARLINK-36908,2026-037P,2026-06-16T19:34:16.689216,15.27592515,.00010146,43.0028,350.6529,267.7767,92.2968,0,U,67945,999,1850,.50254689E-3,.13598E-3,0
STARLINK-36909,2026-037Q,2026-06-17T04:53:39.312672,15.27601780,.00021883,43.0014,348.3980,266.2379,93.8222,0,U,67946,999,1856,.73594662E-3,.20059E-3,0
STARLINK-36920,2026-037R,2026-06-16T19:23:10.553856,15.27604227,.00015541,42.9979,350.5991,279.4384,80.6292,0,U,67947,999,1850,.67935363E-3,.18493E-3,0
STARLINK-36873,2026-037S,2026-06-17T04:44:24.992736,15.27594167,.00024659,42.9919,348.3643,275.5188,84.5383,0,U,67948,999,1856,.63865566E-3,.17362E-3,0
STARLINK-36863,2026-037T,2026-06-17T04:40:42.237984,15.27609992,.00025414,42.9930,348.3356,277.3770,82.6793,0,U,67949,999,1856,.60786102E-3,.16518E-3,0
STARLINK-36887,2026-037U,2026-06-17T21:51:05.870304,15.27589250,.00020916,43.0008,345.1358,265.0768,94.9845,0,U,67950,999,1866,.90233947E-3,.24659E-3,0
STARLINK-36897,2026-037V,2026-06-17T04:29:49.311456,15.27592870,.00018956,42.9995,349.1445,272.4111,87.6523,0,U,67951,999,1855,.47949058E-3,.12961E-3,0
STARLINK-36381,2026-037W,2026-06-17T21:34:26.563584,15.27594776,.00016164,43.0000,345.0279,274.9311,85.1356,0,U,67952,999,1866,.58078591E-3,.15761E-3,0
STARLINK-36824,2026-037X,2026-06-16T18:59:20.429088,15.27618767,.00011814,43.0099,351.3564,122.8081,237.2884,0,U,67953,999,1849,.52589706E-3,.14254E-3,0
STARLINK-36869,2026-037Y,2026-06-17T21:19:38.343936,15.27598277,.00032112,43.0074,344.9680,273.1927,86.8558,0,U,67954,999,1866,.64807917E-3,.17625E-3,0
STARLINK-36872,2026-037Z,2026-06-17T21:08:32.218944,15.27585684,.00021567,43.0039,344.8880,271.7555,88.3049,0,U,67955,999,1866,.52904519E-3,.14327E-3,0
STARLINK-36918,2026-037AA,2026-06-17T21:02:58.734816,15.27607467,.00033496,43.0058,344.8635,270.7749,89.2719,0,U,67956,999,1866,.58358092E-3,.15846E-3,0
STARLINK-36829,2026-037AB,2026-06-17T21:14:05.091360,15.27588071,.00021931,43.0041,344.9298,264.1669,95.8933,0,U,67957,999,1865,.80660186E-3,.22006E-3,0
STARLINK-36799,2026-037AC,2026-06-17T05:15:52.469856,15.27594243,.00007323,43.0028,348.5178,274.0349,86.0419,0,U,67958,999,1856,.46157683E-3,.12466E-3,0
STARLINK-36834,2026-037AD,2026-06-17T05:01:04.688256,15.27590669,.0001732,43.0021,348.4526,265.3429,94.7225,0,U,67959,999,1856,.77370502E-3,.21097E-3,0
STARLINK-36841,2026-037AE,2026-06-17T05:06:35.672832,15.27598544,.00050233,43.0061,348.4796,265.9259,94.1019,0,U,67960,999,1856,.45884935E-3,.12395E-3,0
STARLINK-36912,2026-038A,2026-06-18T00:58:23.837088,15.33454888,.00024603,97.2829,178.6623,104.7574,255.3942,0,U,67961,999,1861,.3747935E-3,.12048E-3,0
STARLINK-36881,2026-038B,2026-06-17T23:20:30.618240,15.33430624,.00012788,97.2838,178.6010,109.9955,250.1426,0,U,67962,999,1860,.51074353E-3,.16442E-3,0
STARLINK-36357,2026-038C,2026-06-18T00:46:39.014400,15.33456437,.00015301,97.2835,178.6720,94.5215,265.6202,0,U,67963,999,1861,.51650168E-3,.16643E-3,0
STARLINK-36349,2026-038D,2026-06-18T00:50:33.793440,15.33445724,.00020002,97.2831,178.6679,102.7566,257.3900,0,U,67964,999,1861,.31451049E-3,.10093E-3,0
STARLINK-36806,2026-038E,2026-06-18T00:42:43.980480,15.33455844,.00020413,97.2835,178.6772,112.7693,247.3765,0,U,67965,999,1861,.46329305E-3,.14917E-3,0
STARLINK-36820,2026-038F,2026-06-18T00:38:49.181568,15.33450958,.00016419,97.2835,178.6803,100.4675,259.6753,0,U,67966,999,1861,.37720725E-3,.12125E-3,0
STARLINK-36819,2026-038G,2026-06-18T00:34:54.147648,15.33460503,.00028743,97.2835,178.6816,118.2936,241.8597,0,U,67967,999,1861,.45654743E-3,.14701E-3,0
STARLINK-36812,2026-038H,2026-06-18T00:30:59.339232,15.33456419,.00027359,97.2843,178.6878,120.9935,239.1577,0,U,67968,999,1861,.49057052E-3,.15803E-3,0
STARLINK-36709,2026-038J,2026-06-18T00:23:09.480480,15.33457304,.00025551,97.2866,178.6951,107.6932,252.4590,0,U,67969,999,1861,.43762513E-3,.14086E-3,0
STARLINK-36319,2026-038K,2026-06-18T00:27:04.189536,15.33444471,.00017406,97.2841,178.6901,143.3719,216.7643,0,U,67970,999,1861,.20293007E-3,.6482E-4,0
STARLINK-36710,2026-038L,2026-06-18T00:19:15.670848,15.33456707,.00019913,97.2837,178.6991,79.0477,281.0990,0,U,67971,999,1861,.5606635E-3,.18076E-3,0
STARLINK-36894,2026-038M,2026-06-18T00:15:19.804896,15.33442058,.00016131,97.2849,178.7045,107.8757,252.2662,0,U,67972,999,1861,.58263345E-3,.1878E-3,0
STARLINK-36900,2026-038N,2026-06-18T00:07:29.562528,15.33433575,.00014591,97.2835,178.7070,89.3244,270.8166,0,U,67973,999,1861,.10188801E-3,.3214E-4,0
STARLINK-36901,2026-038P,2026-06-18T00:11:24.624960,15.33458871,.00027378,97.2833,178.7083,117.2758,242.8764,0,U,67974,999,1861,.44778993E-3,.14416E-3,0
