STARLINK-36908          
1 67945U 26037P   26167.81547094  .00013598  00000+0  50255-3 0  9994
2 67945  43.0028 350.6529 0001014 267.7767  92.2968 15.27592515 18500
STARLINK-36909          
1 67946U 26037Q   26168.20392723  .00020059  00000+0  73595-3 0  9998
2 67946  43.0014 348.3980 0002188 266.2379  93.8222 15.27601780 18568
STARLINK-36920          
1 67947U 26037R   26167.80776104  .00018493  00000+0  67935-3 0  9993
2 67947  42.9979 350.5991 0001554 279.4384  80.6292 15.27604227 18506
STARLINK-36873          
1 67948U 26037S   26168.19751149  .00017362  00000+0  63866-3 0  9992
2 67948  42.9919 348.3643 0002465 275.5188  84.5383 15.27594167 18562
STARLINK-36863          
1 67949U 26037T   26168.19493331  .00016518  00000+0  60786-3 0  9999
2 67949  42.9930 348.3356 0002541 277.3770  82.6793 15.27609992 18566
STARLINK-36887          
1 67950U 26037U   26168.91048461  .00024659  00000+0  90234-3 0  9997
2 67950  43.0008 345.1358 0002091 265.0768  94.9845 15.27589250 18663
STARLINK-36897          
1 67951U 26037V   26168.18737629  .00012961  00000+0  47949-3 0  9996
2 67951  42.9995 349.1445 0001895 272.4111  87.6523 15.27592870 18555
STARLINK-36381          
1 67952U 26037W   26168.89891856  .00015761  00000+0  58079-3 0  9995
2 67952  43.0000 345.0279 0001616 274.9311  85.1356 15.27594776 18661
STARLINK-36824          
1 67953U 26037X   26167.79120867  .00014254  00000+0  52590-3 0  9999
2 67953  43.0099 351.3564 0001181 122.8081 237.2884 15.27618767 18493
STARLINK-36869          
1 67954U 26037Y   26168.88863824  .00017625  00000+0  64808-3 0  9998
2 67954  43.0074 344.9680 0003211 273.1927  86.8558 15.27598277 18667
STARLINK-36872          
1 67955U 26037Z   26168.88092846  .00014327  00000+0  52905-3 0  9998
2 67955  43.0039 344.8880 0002156 271.7555  88.3049 15.27585684 18668
STARLINK-36918          
1 67956U 26037AA  26168.87706869  .00015846  00000+0  58358-3 0  9990
2 67956  43.0058 344.8635 0003349 270.7749  89.2719 15.27607467 18665
STARLINK-36829          
1 67957U 26037AB  26168.88478115  .00022006  00000+0  80660-3 0  9999
2 67957  43.0041 344.9298 0002193 264.1669  95.8933 15.27588071 18657
STARLINK-36799          
1 67958U 26037AC  26168.21935729  .00012466  00000+0  46158-3 0  9999
2 67958  43.0028 348.5178 0000732 274.0349  86.0419 15.27594243 18561
STARLINK-36834          
1 67959U 26037AD  26168.20908204  .00021097  00000+0  77371-3 0  9998
2 67959  43.0021 348.4526 0001732 265.3429  94.7225 15.27590669 18563
STARLINK-36841          
1 67960U 26037AE  26168.21291288  .00012395  00000+0  45885-3 0  9994
2 67960  43.0061 348.4796 0005023 265.9259  94.1019 15.27598544 18567
STARLINK-36912          
1 67961U 26038A   26169.04055367  .00012048  00000+0  37479-3 0  9999
2 67961  97.2829 178.6623 0002460 104.7574 255.3942 15.33454888 18616
STARLINK-36881          
1 67962U 26038B   26168.97257660  .00016442  00000+0  51074-3 0  9990
2 67962  97.2838 178.6010 0001278 109.9955 250.1426 15.33430624 18604
STARLINK-36357          
1 67963U 26038C   26169.03239600  .00016643  00000+0  51650-3 0  9996
2 67963  97.2835 178.6720 0001530  94.5215 265.6202 15.33456437 18613
STARLINK-36349          
1 67964U 26038D   26169.03511335  .00010093  00000+0  31451-3 0  9995
2 67964  97.2831 178.6679 0002000 102.7566 257.3900 15.33445724 18617
STARLINK-36806          
1 67965U 26038E   26169.02967570  .00014917  00000+0  46329-3 0  9990
2 67965  97.2835 178.6772 0002041 112.7693 247.3765 15.33455844 18615
STARLINK-36820          
1 67966U 26038F   26169.02695812  .00012125  00000+0  37721-3 0  9993
2 67966  97.2835 178.6803 0001641 100.4675 259.6753 15.33450958 18614
STARLINK-36819          
1 67967U 26038G   26169.02423782  .00014701  00000+0  45655-3 0  9996
2 67967  97.2835 178.6816 0002874 118.2936 241.8597 15.33460503 18611
STARLINK-36812          
1 67968U 26038H   26169.02152013  .00015803  00000+0  49057-3 0  9997
2 67968  97.2843 178.6878 0002735 120.9935 239.1577 15.33456419 18613
STARLINK-36709          
1 67969U 26038J   26169.01608195  .00014086  00000+0  43763-3 0  9994
2 67969  97.2866 178.6951 0002555 107.6932 252.4590 15.33457304 18617
STARLINK-36319          
1 67970U 26038K   26169.01879849  .00006482  00000+0  20293-3 0  9996
2 67970  97.2841 178.6901 0001740 143.3719 216.7643 15.33444471 18615
STARLINK-36710          
1 67971U 26038L   26169.01337582  .00018076  00000+0  56066-3 0  9999
2 67971  97.2837 178.6991 0001991  79.0477 281.0990 15.33456707 18619
STARLINK-36894          
1 67972U 26038M   26169.01064589  .00018780  00000+0  58263-3 0  9997
2 67972  97.2849 178.7045 0001613 107.8757 252.2662 15.33442058 18616
STARLINK-36900          
1 67973U 26038N   26169.00520327  .00003214  00000+0  10189-3 0  9995
2 67973  97.2835 178.7070 0001459  89.3244 270.8166 15.33433575 18612
STARLINK-36901          
1 67974U 26038P   26169.00792390  .00014416  00000+0  44779-3 0  9995
2 67974  97.2833 178.7083 0002737 117.2758 242.8764 15.33458871 18615
